NORAD_CAT_ID,OBJECT_NAME,OBJECT_TYPE,EPOCH,MEAN_MOTION,ECCENTRICITY,INCLINATION,RA_OF_ASC_NODE,ARG_OF_PERICENTER,MEAN_ANOMALY,BSTAR,MEAN_MOTION_DOT,MEAN_MOTION_DDOT,TLE_LINE0,TLE_LINE1,TLE_LINE2,SEMIMAJOR_AXIS,PERIOD,APOGEE,PERIGEE,DECAYED
56797.0,STARLINK-6058,PAYLOAD,2023-08-03 12:41:05,15.69914968,0.0003404,69.9971,232.6357,266.1854,93.8952,-1.2691e-05,-1.738e-05,0.0,0 STARLINK-6058,1 56797U 23078AG  23215.52853179 -.00001738  00000-0 -12691-4 0  9991,2 56797  69.9971 232.6357 0003404 266.1854  93.8952 15.69914968 10395,6737.277,91.725,361.436,356.849,0.0
56797.0,STARLINK-6058,PAYLOAD,2023-08-04 02:26:50,15.69933117,0.0003461,69.9974,231.0223,271.2633,88.8167,4.813e-05,5.58e-05,0.0,0 STARLINK-6058,1 56797U 23078AG  23216.10197881  .00005580  00000-0  48130-4 0  9991,2 56797  69.9974 231.0223 0003461 271.2633  88.8167 15.69933117 10487,6737.225,91.724,361.422,356.759,0.0
56797.0,STARLINK-6058,PAYLOAD,2023-08-04 13:09:07,15.69927208,0.0002924,69.9994,229.77,277.6496,82.4367,8.4684e-05,9.983e-05,0.0,0 STARLINK-6058,1 56797U 23078AG  23216.54799927  .00009983  00000-0  84684-4 0  9993,2 56797  69.9994 229.7700 0002924 277.6496  82.4367 15.69927208 10557,6737.242,91.724,361.077,357.137,0.0
56797.0,STARLINK-6058,PAYLOAD,2023-08-05 10:33:38,15.69928967,0.0002707,69.9994,227.26,284.9964,75.0932,2.9279e-05,3.31e-05,0.0,0 STARLINK-6058,1 56797U 23078AG  23217.44003072  .00003310  00000-0  29279-4 0  9999,2 56797  69.9994 227.2600 0002707 284.9964  75.0932 15.69928967 10693,6737.237,91.724,360.926,357.278,0.0
56797.0,STARLINK-6058,PAYLOAD,2023-08-06 01:51:10,15.69917856,0.0003143,70.0018,225.4736,262.0629,98.021,-3.3985e-06,-6.21e-06,0.0,0 STARLINK-6058,1 56797U 23078AG  23218.07720228 -.00000621  00000-0 -33985-5 0  9992,2 56797  70.0018 225.4736 0003143 262.0629  98.0210 15.69917856 10793,6737.269,91.725,361.252,357.016,0.0
56797.0,STARLINK-6058,PAYLOAD,2023-08-06 09:29:56,15.69904893,0.0002677,70.0014,224.5762,247.6284,112.4628,-3.6846e-05,-4.636e-05,0.0,0 STARLINK-6058,1 56797U 23078AG  23218.39579213 -.00004636  00000-0 -36846-4 0  9991,2 56797  70.0014 224.5762 0002677 247.6284 112.4628 15.69904893 10842,6737.306,91.725,360.975,357.368,0.0
56797.0,STARLINK-6058,PAYLOAD,2023-08-07 09:57:57,15.69940588,0.000334,70.0012,221.7122,246.5241,113.5604,6.8312e-05,8.015e-05,0.0,0 STARLINK-6058,1 56797U 23078AG  23219.41524545  .00008015  00000-0  68312-4 0  9999,2 56797  70.0012 221.7122 0003340 246.5241 113.5604 15.69940588 11004,6737.204,91.723,361.319,356.819,0.0
56797.0,STARLINK-6058,PAYLOAD,2023-08-07 13:01:26,15.69961392,0.0003086,69.9997,221.3495,265.4925,94.5918,0.00013278,0.00015807,0.0,0 STARLINK-6058,1 56797U 23078AG  23219.54267336  .00015807  00000-0  13278-3 0  9992,2 56797  69.9997 221.3495 0003086 265.4925  94.5918 15.69961392 11022,6737.144,91.722,361.089,356.93,0.0
56797.0,STARLINK-6058,PAYLOAD,2023-08-08 02:47:13,15.69911976,0.0003307,70.0,219.7381,263.8396,96.2423,-7.2489e-05,-8.915e-05,0.0,0 STARLINK-6058,1 56797U 23078AG  23220.11612694 -.00008915  00000-0 -72489-4 0  9992,2 56797  70.0000 219.7381 0003307 263.8396  96.2423 15.69911976 11118,6737.286,91.725,361.379,356.923,0.0
56797.0,STARLINK-6058,PAYLOAD,2023-08-08 10:25:58,15.69923449,0.0003241,70.0,218.842,265.9446,94.138,-7.5249e-05,-9.25e-05,0.0,0 STARLINK-6058,1 56797U 23078AG  23220.43470370 -.00009250  00000-0 -75249-4 0  9990,2 56797  70.0000 218.8420 0003241 265.9446  94.1380 15.69923449 11160,6737.253,91.724,361.302,356.934,0.0
56797.0,STARLINK-6058,PAYLOAD,2023-08-08 18:04:44,15.69897728,0.0003399,70.0,217.9458,268.1159,91.9648,0.00012345,0.00014641,0.0,0 STARLINK-6058,1 56797U 23078AG  23220.75329376  .00014641  00000-0  12345-3 0  9999,2 56797  70.0000 217.9458 0003399 268.1159  91.9648 15.69897728 11219,6737.327,91.726,361.482,356.902,0.0
56797.0,STARLINK-6058,PAYLOAD,2023-08-09 09:22:16,15.69930796,0.0003466,70.0001,216.1551,262.5822,97.498,0.00045075,0.00054354,0.0,0 STARLINK-6058,1 56797U 23078AG  23221.39046931  .00054354  00000-0  45075-3 0  9994,2 56797  70.0001 216.1551 0003466 262.5822  97.4980 15.69930796 11319,6737.232,91.724,361.432,356.762,0.0
56797.0,STARLINK-6058,PAYLOAD,2023-08-09 17:01:02,15.6992828,0.0003538,70.0001,215.2598,260.2911,99.7886,0.00021076,0.00025211,0.0,0 STARLINK-6058,1 56797U 23078AG  23221.70905364  .00025211  00000-0  21076-3 0  9998,2 56797  70.0001 215.2598 0003538 260.2911  99.7886 15.69928280 11364,6737.239,91.724,361.488,356.721,0.0
56797.0,STARLINK-6058,PAYLOAD,2023-08-10 09:50:18,15.69931604,0.0003108,69.9999,213.2892,262.4698,97.6144,0.00013077,0.00015545,0.0,0 STARLINK-6058,1 56797U 23078AG  23222.40993728  .00015545  00000-0  13077-3 0  9998,2 56797  69.9999 213.2892 0003108 262.4698  97.6144 15.69931604 11471,6737.23,91.724,361.189,357.001,0.0
56797.0,STARLINK-6058,PAYLOAD,2023-08-11 01:07:49,15.69941616,0.0003,69.9998,211.4981,265.0352,95.0501,0.00022141,0.00026512,0.0,0 STARLINK-6058,1 56797U 23078AG  23223.04710363  .00026512  00000-0  22141-3 0  9999,2 56797  69.9998 211.4981 0003000 265.0352  95.0501 15.69941616 11570,6737.201,91.723,361.087,357.045,0.0
56797.0,STARLINK-6058,PAYLOAD,2023-08-11 08:46:35,15.69944025,0.0003786,69.9997,210.6023,266.5791,93.4971,0.00031181,0.00037481,0.0,0 STARLINK-6058,1 56797U 23078AG  23223.36568519  .00037481  00000-0  31181-3 0  9999,2 56797  69.9997 210.6023 0003786 266.5791  93.4971 15.69944025 11627,6737.194,91.723,361.61,356.508,0.0
56797.0,STARLINK-6058,PAYLOAD,2023-08-11 16:25:21,15.69925974,0.0003359,70.0,209.7066,266.4333,93.6479,0.00010444,0.00012365,0.0,0 STARLINK-6058,1 56797U 23078AG  23223.68427236  .00012365  00000-0  10444-3 0  9997,2 56797  70.0000 209.7066 0003359 266.4333  93.6479 15.69925974 11670,6737.246,91.724,361.374,356.848,0.0
56797.0,STARLINK-6058,PAYLOAD,2023-08-12 09:14:37,15.69929355,0.0003069,70.0003,207.7361,275.0419,85.0426,1.7014e-06,-8e-08,0.0,0 STARLINK-6058,1 56797U 23078AG  23224.38515402 -.00000008  00000-0  17014-5 0  9992,2 56797  70.0003 207.7361 0003069 275.0419  85.0426 15.69929355 11784,6737.236,91.724,361.169,357.033,0.0
56797.0,STARLINK-6058,PAYLOAD,2023-08-13 15:49:39,15.69917875,0.0002879,69.9992,204.1529,270.7014,89.3852,3.4674e-05,3.957e-05,0.0,0 STARLINK-6058,1 56797U 23078AG  23225.65948958  .00003957  00000-0  34674-4 0  9994,2 56797  69.9992 204.1529 0002879 270.7014  89.3852 15.69917875 11982,6737.269,91.725,361.074,357.194,0.0
56797.0,STARLINK-6058,PAYLOAD,2023-08-14 23:56:27,15.69932795,0.0003448,70.0002,200.3912,268.2413,91.8387,4.9115e-05,5.699e-05,0.0,0 STARLINK-6058,1 56797U 23078AG  23226.99753999  .00005699  00000-0  49115-4 0  9992,2 56797  70.0002 200.3912 0003448 268.2413  91.8387 15.69932795 12192,6737.226,91.724,361.414,356.768,0.0
56797.0,STARLINK-6058,PAYLOAD,2023-08-15 07:35:13,15.69924214,0.0003301,69.9988,199.495,274.4686,85.6133,8.0169e-06,7.51e-06,0.0,0 STARLINK-6058,1 56797U 23078AG  23227.31612703  .00000751  00000-0  80169-5 0  9995,2 56797  69.9988 199.4950 0003301 274.4686  85.6133 15.69924214 12244,6737.251,91.724,361.34,356.892,0.0
56797.0,STARLINK-6058,PAYLOAD,2023-08-16 09:35:00,15.6993063,0.0003322,69.9982,196.4499,272.1523,87.9293,1.5254e-05,1.622e-05,0.0,0 STARLINK-6058,1 56797U 23078AG  23228.39930706  .00001622  00000-0  15254-4 0  9990,2 56797  69.9982 196.4499 0003322 272.1523  87.9293 15.69930630 12411,6737.232,91.724,361.336,356.859,0.0
56797.0,STARLINK-6058,PAYLOAD,2023-08-17 06:59:32,15.69927153,0.0002984,69.9983,193.942,270.5398,89.5456,3.3465e-06,1.9e-06,0.0,0 STARLINK-6058,1 56797U 23078AG  23229.29134481  .00000190  00000-0  33465-5 0  9990,2 56797  69.9983 193.9420 0002984 270.5398  89.5456 15.69927153 12553,6737.242,91.724,361.118,357.097,0.0
56797.0,STARLINK-6058,PAYLOAD,2023-08-18 01:20:34,15.69915341,0.0002974,69.9988,191.7931,262.9452,97.1405,1.2171e-06,-6.6e-07,0.0,0 STARLINK-6058,1 56797U 23078AG  23230.05595666 -.00000066  00000-0  12171-5 0  9996,2 56797  69.9988 191.7931 0002974 262.9452  97.1405 15.69915341 12674,6737.276,91.725,361.145,357.138,0.0
56797.0,STARLINK-6058,PAYLOAD,2023-08-18 08:59:18,15.69940734,0.0003528,69.9991,190.8973,268.2939,91.7852,3.9462e-05,4.538e-05,0.0,0 STARLINK-6058,1 56797U 23078AG  23230.37452310  .00004538  00000-0  39462-4 0  9997,2 56797  69.9991 190.8973 0003528 268.2939  91.7852 15.69940734 12725,6737.204,91.723,361.445,356.692,0.0
56797.0,STARLINK-6058,PAYLOAD,2023-08-19 00:16:51,15.69906999,0.0003839,70.0001,189.1058,288.5918,71.4861,-1.1303e-05,-1.571e-05,0.0,0 STARLINK-6058,1 56797U 23078AG  23231.01170688 -.00001571  00000-0 -11303-4 0  9994,2 56797  70.0001 189.1058 0003839 288.5918  71.4861 15.69906999 12823,6737.3,91.725,361.752,356.579,0.0
56797.0,STARLINK-6058,PAYLOAD,2023-08-19 06:23:51,15.69918501,0.0003327,69.9994,188.389,274.0797,86.0019,2.8796e-06,1.33e-06,0.0,0 STARLINK-6058,1 56797U 23078AG  23231.26656716  .00000133  00000-0  28796-5 0  9998,2 56797  69.9994 188.3890 0003327 274.0797  86.0019 15.69918501 12866,6737.267,91.725,361.374,356.891,0.0
56797.0,STARLINK-6058,PAYLOAD,2023-08-20 08:23:38,15.69919499,0.0002831,69.9996,185.3441,275.6189,84.4684,-4.0285e-06,-6.97e-06,0.0,0 STARLINK-6058,1 56797U 23078AG  23232.34975446 -.00000697  00000-0 -40285-5 0  9996,2 56797  69.9996 185.3441 0002831 275.6189  84.4684 15.69919499 13035,6737.264,91.724,361.037,357.222,0.0
56797.0,STARLINK-6058,PAYLOAD,2023-08-20 23:41:10,15.69904237,0.0004087,69.9995,183.5532,282.8553,77.2186,-3.4287e-05,-4.331e-05,0.0,0 STARLINK-6058,1 56797U 23078AG  23232.98692924 -.00004331  00000-0 -34287-4 0  9996,2 56797  69.9995 183.5532 0004087 282.8553  77.2186 15.69904237 13137,6737.308,91.725,361.927,356.419,0.0
56797.0,STARLINK-6058,PAYLOAD,2023-08-21 07:19:56,15.69908187,0.0002813,70.0011,182.6588,250.8921,109.197,6.8027e-06,6.05e-06,0.0,0 STARLINK-6058,1 56797U 23078AG  23233.30551411  .00000605  00000-0  68027-5 0  9996,2 56797  70.0011 182.6588 0002813 250.8921 109.1970 15.69908187 13188,6737.297,91.725,361.057,357.266,0.0
